{
    "links": {
        "self": "http://www.neowsapp.com/rest/v1/neo/3763949?api_key=iIulBulltgU6a56xZRHN4H3l9WmuAYTsLGpBGhQ2"
    },
    "id": "3763949",
    "neo_reference_id": "3763949",
    "name": "(2016 WG1)",
    "designation": "2016 WG1",
    "nasa_jpl_url": "http://ssd.jpl.nasa.gov/sbdb.cgi?sstr=3763949",
    "absolute_magnitude_h": 23.1,
    "estimated_diameter": {
        "kilometers": {
            "estimated_diameter_min": 0.063760979,
            "estimated_diameter_max": 0.1425738833
        },
        "meters": {
            "estimated_diameter_min": 63.7609789875,
            "estimated_diameter_max": 142.5738833281
        },
        "miles": {
            "estimated_diameter_min": 0.0396192233,
            "estimated_diameter_max": 0.0885912765
        },
        "feet": {
            "estimated_diameter_min": 209.1895703015,
            "estimated_diameter_max": 467.7620993781
        }
    },
    "is_potentially_hazardous_asteroid": false,
    "close_approach_data": [
        {
            "close_approach_date": "2016-11-22",
            "close_approach_date_full": "2016-Nov-22 23:44",
            "epoch_date_close_approach": 1479858240000,
            "relative_velocity": {
                "kilometers_per_second": "5.271510629",
                "kilometers_per_hour": "18977.438264372",
                "miles_per_hour": "11791.8421259927"
            },
            "miss_distance": {
                "astronomical": "0.257860387",
                "lunar": "100.307690543",
                "kilometers": "38575364.65257569",
                "miles": "23969620.109056922"
            },
            "orbiting_body": "Earth"
        }
    ],
    "orbital_data": {
        "orbit_id": "10",
        "orbit_determination_date": "2017-04-06 08:22:05",
        "first_observation_date": "2016-11-19",
        "last_observation_date": "2016-12-28",
        "data_arc_in_days": 39,
        "observations_used": 37,
        "orbit_uncertainty": "6",
        "minimum_orbit_intersection": ".234262",
        "jupiter_tisserand_invariant": "3.378",
        "epoch_osculation": "2459000.5",
        "eccentricity": ".4826024632631965",
        "semi_major_axis": "2.353255536690614",
        "inclination": "7.906906891912548",
        "ascending_node_longitude": "258.0855288750531",
        "orbital_period": "1318.566569565212",
        "perihelion_distance": "1.217568617995969",
        "perihelion_argument": "163.9664800866323",
        "aphelion_distance": "3.48894245538526",
        "perihelion_time": "2459045.535555845421",
        "mean_anomaly": "347.7042232993231",
        "mean_motion": ".2730237580031378",
        "equinox": "J2000",
        "orbit_class": {
            "orbit_class_type": "AMO",
            "orbit_class_description": "Near-Earth asteroid orbits similar to that of 1221 Amor",
            "orbit_class_range": "1.017 AU < q (perihelion) < 1.3 AU"
        }
    },
    "is_sentry_object": false
}